COSMOS 2251 DEB         
1 33920U 93036DZ  26201.10266202  .00002269  00000+0  46200-3 0  9991
2 33920  74.0581 240.4182 0032339 200.1396 159.8497 14.61327737913160
COSMOS 2251 DEB         
1 33922U 93036EB  26201.79587528  .00000540  00000+0  14577-3 0  9997
2 33922  74.0467  94.9028 0022406 151.9536 276.1284 14.50148247917671
COSMOS 2251 DEB         
1 33924U 93036ED  26201.48107813  .00000244  00000+0  25273-3 0  9996
2 33924  73.9132 276.9169 0402809 272.4418  83.0640 13.50493103857054
COSMOS 2251 DEB         
1 33928U 93036EH  26201.87462961  .00000433  00000+0  12227-3 0  9996
2 33928  73.9258 357.9339 0060931 245.4638 114.0161 14.47838575918308
COSMOS 2251 DEB         
1 33932U 93036EM  26201.56171281  .00000422  00000+0  14339-3 0  9993
2 33932  74.0330 270.2845 0037700 295.8804  63.8466 14.39307849911608
COSMOS 2251 DEB         
1 33933U 93036EN  26201.22351879  .00000282  00000+0  10749-3 0  9995
2 33933  74.0885  19.9421 0071774 332.8560  26.8846 14.33909693909306
COSMOS 2251 DEB         
1 33934U 93036EP  26201.84828157  .00001711  00000+0  35709-3 0  9993
2 33934  74.0356  40.6019 0015972 104.5657 255.7282 14.60625563919515
COSMOS 2251 DEB         
1 33936U 93036ER  26201.77533933  .00001351  00000+0  27663-3 0  9992
2 33936  74.0174 336.4436 0027545  71.6522 288.7637 14.61572252921035
COSMOS 2251 DEB         
1 33938U 93036ET  26201.65357666  .00000733  00000+0  20643-3 0  9992
2 33938  74.0448 156.3106 0016513 191.6714 341.1776 14.47498547915818
COSMOS 2251 DEB         
1 33939U 93036EU  26201.78522977  .00071170  00000+0  23131-2 0  9993
2 33939  73.9973 342.4636 0007298  87.8821 272.3217 15.31544228920836
COSMOS 2251 DEB         
1 33940U 93036EV  26201.74110484  .00001638  00000+0  34259-3 0  9993
2 33940  74.0381  83.8884 0011109 110.8041 306.4121 14.60604408918042
COSMOS 2251 DEB         
1 33942U 93036EX  26201.84427676  .00000241  00000+0  87802-4 0  9992
2 33942  74.0341 229.3654 0021883 264.1578 268.5071 14.38252175912984
COSMOS 2251 DEB         
1 33944U 93036EZ  26201.87609002  .00000307  00000+0  10361-3 0  9990
2 33944  74.0392 263.7726 0114325 309.6731 168.7603 14.37720942911919
COSMOS 2251 DEB         
1 33945U 93036FA  26201.42858993  .00000116  00000+0  50001-4 0  9991
2 33945  74.0289 263.6677 0023896 299.0730  60.8029 14.34751254911665
COSMOS 2251 DEB         
1 33948U 93036FD  26201.85241575  .00000177  00000+0  70037-4 0  9991
2 33948  74.0345 261.2034 0024602 286.8345  73.0109 14.35841687911828
COSMOS 2251 DEB         
1 33971U 93036FE  26201.43939182  .00000305  00000+0  10505-3 0  9995
2 33971  74.0226 207.5599 0020235 260.5276 250.6243 14.40069037913013
COSMOS 2251 DEB         
1 33972U 93036FF  26201.25294047  .00001888  00000+0  57619-3 0  9994
2 33972  73.9943 145.5603 0123304 262.3520 170.1221 14.38348916902280
COSMOS 2251 DEB         
1 33973U 93036FG  26201.74518155  .00000151  00000+0  49952-4 0  9992
2 33973  74.0075  52.0415 0046085 178.9254 259.3881 14.45581968917796
COSMOS 2251 DEB         
1 33975U 93036FJ  26201.70389122  .00000461  00000+0  27788-3 0  9996
2 33975  73.8000  57.6804 0190522 152.4963 208.6412 14.00816103889097
COSMOS 2251 DEB         
1 33980U 93036FP  26201.83399807  .00001544  00000+0  32690-3 0  9998
2 33980  74.0196 359.4323 0028528  85.4070  31.6338 14.59880305920053
COSMOS 2251 DEB         
1 33982U 93036FR  26201.55683869  .00000720  00000+0  14681-3 0  9998
2 33982  74.0703 300.7720 0075632 288.8199  92.0490 14.61187032923691
COSMOS 2251 DEB         
1 33983U 93036FS  26201.87525583  .00000820  00000+0  21182-3 0  9997
2 33983  74.0494  93.2885 0020397 141.6745 298.2903 14.51425045918226
COSMOS 2251 DEB         
1 33984U 93036FT  26201.31504204  .00001494  00000+0  26374-3 0  9990
2 33984  74.0071 282.3928 0022764  55.6839   8.4659 14.68242331922873
COSMOS 2251 DEB         
1 33986U 93036FV  26201.51947190  .00000724  00000+0  21703-3 0  9995
2 33986  74.0341 254.0906 0042978 277.1870 149.7320 14.44110582912006
COSMOS 2251 DEB         
1 33990U 93036FZ  26201.39621308  .00000317  00000+0  32037-3 0  9996
2 33990  73.9288 293.2837 0405481 272.9610 153.3556 13.50262447856940
COSMOS 2251 DEB         
1 33992U 93036GB  26201.58147266  .00001224  00000+0  21518-3 0  9995
2 33992  74.0217 273.0412 0054144 334.9238  92.7122 14.67901224923494
COSMOS 2251 DEB         
1 33994U 93036GD  26201.86682889  .00000136  00000+0  50208-4 0  9993
2 33994  74.0434 143.0050 0023993 226.9586 194.1190 14.41346937915911
COSMOS 2251 DEB         
1 33995U 93036GE  26201.77953287  .00000856  00000+0  29892-3 0  9990
2 33995  74.0596  76.4337 0059821  36.4255 324.0945 14.35744001906766
COSMOS 2251 DEB         
1 33999U 93036GJ  26201.57612926  .00007141  00000+0  76203-3 0  9996
2 33999  73.9156 150.4149 0040598 348.0577  11.9636 14.88402466925162
COSMOS 2251 DEB         
1 34001U 93036GL  26201.11662753  .00000092  00000+0  39617-4 0  9991
2 34001  74.0367 238.1209 0021566 270.2921 120.4011 14.37312046912984
COSMOS 2251 DEB         
1 34003U 93036GN  26201.21889261  .00000413  00000+0  28591-3 0  9994
2 34003  74.0759 275.3788 0277958 336.5761  22.2896 13.85008784874634
COSMOS 2251 DEB         
1 34004U 93036GP  26201.54267632  .00001405  00000+0  36201-3 0  9992
2 34004  74.0324 260.2913 0030772 227.8435 132.0111 14.50758188912161
COSMOS 2251 DEB         
1 34005U 93036GQ  26201.39162041  .00000148  00000+0  54709-4 0  9991
2 34005  74.0446 167.7615 0021501 236.2717 280.9138 14.40458020915418
COSMOS 2251 DEB         
1 34006U 93036GR  26201.07678954  .00036575  00000+0  18685-2 0  9996
2 34006  74.0574  54.0480 0006541 174.9309 343.6322 15.16501025919695
COSMOS 2251 DEB         
1 34007U 93036GS  26201.29128483  .00001172  00000+0  21481-3 0  9992
2 34007  74.0175 283.6688 0046596   1.2626 358.8651 14.66332012922960
COSMOS 2251 DEB         
1 34008U 93036GT  26201.37470013  .00000098  00000+0  44842-4 0  9994
2 34008  74.0347 289.0853 0024206 235.9154 195.0947 14.33276740911115
COSMOS 2251 DEB         
1 34009U 93036GU  26201.71297948  .00000112  00000+0  49786-4 0  9996
2 34009  74.0379 294.8940 0028475 312.3067 171.3450 14.33378481910971
COSMOS 2251 DEB         
1 34011U 93036GW  26200.23643690  .00000656  00000+0  20298-3 0  9993
2 34011  74.0133 284.3008 0039480 318.6961  41.1211 14.42818810910661
COSMOS 2251 DEB         
1 34014U 93036GZ  26201.49128294  .00002239  00000+0  32973-3 0  9995
2 34014  74.0142 211.0923 0040290 295.5119 217.7922 14.75499103925422
COSMOS 2251 DEB         
1 34015U 93036HA  26201.83056395  .00001946  00000+0  39541-3 0  9998
2 34015  74.0231  98.4349 0020727 142.8650 285.1059 14.61704958917454
COSMOS 2251 DEB         
1 34018U 93036HD  26201.13323843  .00000254  00000+0  19923-3 0  9992
2 34018  73.8765  80.1933 0264718  75.6338  75.6848 13.81331056876862
COSMOS 2251 DEB         
1 34019U 93036HE  26201.82228274  .00001032  00000+0  36595-3 0  9990
2 34019  73.9531   5.6960 0060932 135.3265 291.8661 14.34717639906764
COSMOS 2251 DEB         
1 34021U 93036HG  26201.12881480  .00000488  00000+0  13118-3 0  9990
2 34021  74.0352  77.6499 0020142 168.2898 346.0692 14.50579687918107
COSMOS 2251 DEB         
1 34022U 93036HH  26201.83248508  .00000205  00000+0  74273-4 0  9994
2 34022  74.0517 225.1457 0023443 241.2549 298.9934 14.39237679913611
COSMOS 2251 DEB         
1 34023U 93036HJ  26201.43223677  .00000373  00000+0  12431-3 0  9994
2 34023  74.0227 205.0083 0020053 253.9530 177.3870 14.40968835913780
COSMOS 2251 DEB         
1 34024U 93036HK  26201.89873904  .00000194  00000+0  76316-4 0  9993
2 34024  74.0460 272.3988 0022433 273.8998 205.1178 14.35608363911830
COSMOS 2251 DEB         
1 34026U 93036HM  26201.77247758  .00000768  00000+0  64012-3 0  9990
2 34026  73.7687 331.2919 0346481 166.8609 316.1957 13.65715456865357
COSMOS 2251 DEB         
1 34028U 93036HP  26201.20917809  .00000159  00000+0  19695-3 0  9992
2 34028  73.8826  10.6702 0545553 111.5875  58.4779 13.20812200839058
COSMOS 2251 DEB         
1 34031U 93036HS  26201.81290127  .00002170  00000+0  43983-3 0  9992
2 34031  74.0112  74.5839 0022881 140.8307 347.5110 14.61714137917797
COSMOS 2251 DEB         
1 34035U 93036HW  26201.47599627  .00002149  00000+0  50719-3 0  9996
2 34035  74.0642 294.9874 0040720 247.6451 241.3265 14.54343700911583
COSMOS 2251 DEB         
1 34036U 93036HX  26201.76746091  .00042517  00000+0  20696-2 0  9991
2 34036  74.0027  56.9837 0011388 102.0855 258.1618 15.18120256918839
COSMOS 2251 DEB         
1 34037U 93036HY  26201.82375657  .00000583  00000+0  20928-3 0  9991
2 34037  74.0509   7.4022 0053860   3.6540 356.4994 14.35274292908746
COSMOS 2251 DEB         
1 34040U 93036JB  26201.88508521  .00000111  00000+0  10507-3 0  9998
2 34040  73.9564  61.8604 0336204 332.3629  25.9956 13.69118294866121
COSMOS 2251 DEB         
1 34045U 93036JG  26201.33679889  .00000055  00000+0  29093-4 0  9997
2 34045  74.0385 268.9911 0027529 300.4281 131.9867 14.34172413911819
COSMOS 2251 DEB         
1 34046U 93036JH  26201.38265006  .00001546  00000+0  40609-3 0  9996
2 34046  74.0382 319.6802 0076987 349.9866  65.5787 14.48287390910042
COSMOS 2251 DEB         
1 34050U 93036JM  26201.84439588  .00000120  00000+0  84952-4 0  9997
2 34050  74.0879 352.2756 0218114   4.1827 117.7004 13.96701676885049
COSMOS 2251 DEB         
1 34053U 93036JQ  26201.14168842  .00000111  00000+0  12170-3 0  9997
2 34053  73.8422 248.5008 0423750   0.4237 359.7144 13.49379262856432
COSMOS 2251 DEB         
1 34056U 93036JT  26201.00656193  .00000629  00000+0  27348-3 0  9993
2 34056  74.0562  43.7922 0125836  39.7786 109.6356 14.21862293895264
COSMOS 2251 DEB         
1 34058U 93036JV  26201.38884266  .00000231  00000+0  22564-3 0  9994
2 34058  73.9315 181.9947 0376555 135.7393  13.7473 13.56315062861205
COSMOS 2251 DEB         
1 34059U 93036JW  26201.89618618  .00001263  00000+0  30499-3 0  9999
2 34059  74.0376 130.4937 0017655 157.6468 272.1362 14.54103612916587
